STARLINK-33559          
1 62107U 24220V   26193.07728926  .00007518  00000+0  28244-3 0  9991
2 62107  43.0049 223.1613 0002674 292.9793  67.0776 15.27580806 92215
STARLINK-33553          
1 62108U 24220W   26193.13497744  .00006744  00000+0  25451-3 0  9997
2 62108  43.0017 222.7299 0001542 255.7168 104.3513 15.27561585 92220
STARLINK-33556          
1 62109U 24220X   26193.12083042  .00012066  00000+0  44716-3 0  9998
2 62109  42.9981 222.6217 0001060 258.7660 101.3073 15.27587752 92247
STARLINK-33551          
1 62110U 24220Y   26193.13882161  .00009535  00000+0  35553-3 0  9996
2 62110  43.0042 222.7599 0002135 280.1006  79.9604 15.27583451 92220
GUANGCHUAN 01           
1 62111U 24221A   26193.10628434  .00002198  00000+0  13294-3 0  9992
2 62111  49.9442  40.8172 0007097  41.6222 318.5268 15.14793153 89961
GUANGCHUAN 02           
1 62112U 24221B   26193.10954683  .00002509  00000+0  14952-3 0  9999
2 62112  49.9428  40.7457 0006449  89.3549 270.8141 15.14775419 89956
STARLINK-32311          
1 62114U 24222A   26192.99912542  .00007834  00000+0  29377-3 0  9999
2 62114  42.9927 139.1751 0002078  37.0673 323.0322 15.27592328 92098
STARLINK-32470          
1 62115U 24222B   26192.28707889  .00014512  00000+0  53561-3 0  9991
2 62115  43.0014 157.9993 0001377  37.3041 322.7906 15.27595214 91806
STARLINK-32502          
1 62116U 24222C   26192.96278595  .00012346  00000+0  45706-3 0  9999
2 62116  43.0000 154.4649 0001179 251.6123 108.4600 15.27605620 91818
STARLINK-32521          
1 62117U 24222D   26192.88372604  .00009376  00000+0  34973-3 0  9990
2 62117  43.0007 151.1580 0001054 264.1105  95.9627 15.27586422 91788
STARLINK-32549          
1 62118U 24222E   26192.92680152  .00007327  00000+0  27548-3 0  9990
2 62118  42.9993 154.1961 0001155 258.0737 101.9985 15.27585150 91818
STARLINK-32535          
1 62119U 24222F   26192.25172531  .00013265  00000+0  49053-3 0  9997
2 62119  42.9990 155.1297 0000928 311.8512  48.2260 15.27591103 91695
STARLINK-32548          
1 62120U 24222G   26192.91153036  .00009445  00000+0  35216-3 0  9992
2 62120  42.9980 154.9388 0001134 270.4392  89.6329 15.27592494 91756
STARLINK-32525          
1 62121U 24222H   26192.93322674  .00015294  00000+0  56401-3 0  9999
2 62121  42.9963 154.2434 0000368 254.5409 105.5402 15.27588015 91768
STARLINK-32628          
1 62122U 24222J   26193.21276007  .00009023  00000+0  33695-3 0  9993
2 62122  43.0022 152.9045 0001613 262.8363  97.2305 15.27584630 91965
STARLINK-32626          
1 62123U 24222K   26192.90510556  .00014412  00000+0  53193-3 0  9992
2 62123  42.9980 154.8906 0000590 203.0081 157.0744 15.27598679 91747
STARLINK-32608          
1 62124U 24222L   26193.01017811  .00007344  00000+0  27601-3 0  9993
2 62124  42.9951 153.9664 0001263  76.7955 283.3037 15.27593525 91754
STARLINK-32488          
1 62125U 24222M   26192.91538285  .00013616  00000+0  50308-3 0  9994
2 62125  42.9934 154.9657 0000572 308.8777  51.2024 15.27600229 91648
STARLINK-32490          
1 62126U 24222N   26192.92936505  .00008760  00000+0  32727-3 0  9992
2 62126  42.9935 154.2143 0000319 135.0134 225.0743 15.27599379 91753
STARLINK-32557          
1 62127U 24222P   26193.21033311  .00012068  00000+0  44729-3 0  9990
2 62127  42.9973 142.3508 0001965 238.7665 121.2995 15.27583878 91963
STARLINK-32568          
1 62128U 24222Q   26192.37815155  .00008955  00000+0  33447-3 0  9996
2 62128  43.0002 157.8143 0001916 266.3821  93.6811 15.27586554 91404
STARLINK-32462          
1 62129U 24222R   26192.31068232  .00008536  00000+0  31934-3 0  9991
2 62129  42.9998 154.7107 0002265 251.7204 108.3401 15.27582099 91694
STARLINK-32463          
1 62130U 24222S   26193.19863411  .00008885  00000+0  33196-3 0  9991
2 62130  43.0016 152.7949 0001517  43.3356 316.7615 15.27586149 91796
STARLINK-32550          
1 62131U 24222T   26192.90767973  .00011230  00000+0  41665-3 0  9994
2 62131  42.9925 154.9129 0001423  41.2393 318.8566 15.27606372 91791
STARLINK-32507          
1 62132U 24222U   26192.26906998  .00010547  00000+0  39207-3 0  9995
2 62132  42.9956 157.8555 0003652 241.5870 118.4614 15.27590789 91503
STARLINK-32245          
1 62133U 24222V   26192.95892904  .00015692  00000+0  57814-3 0  9993
2 62133  43.0005 154.4322 0000654   9.5307 350.5557 15.27602238 91915
STARLINK-32546          
1 62134U 24222W   26192.90301932  .00015648  00000+0  57655-3 0  9999
2 62134  42.9956 151.4152 0000603 272.9000  87.1783 15.27602492 91676
STARLINK-32545          
1 62135U 24222X   26192.33078499  .00014175  00000+0  52399-3 0  9990
2 62135  42.9953 158.3180 0000592 307.4635  52.6162 15.27557325 91702
STARLINK-32554          
1 62136U 24222Y   26192.88325817  .00013687  00000+0  50581-3 0  9998
2 62136  42.9995 154.7278 0000855 251.7957 108.2802 15.27590577 91791
STARLINK-32570          
1 62137U 24222Z   26192.30119798  .00015139  00000+0  55855-3 0  9998
2 62137  43.0022 158.0974 0002522 277.1696  82.8869 15.27577969 91802
