OBJECT_NAME,OBJECT_ID,EPOCH,MEAN_MOTION,ECCENTRICITY,INCLINATION,RA_OF_ASC_NODE,ARG_OF_PERICENTER,MEAN_ANOMALY,EPHEMERIS_TYPE,CLASSIFICATION_TYPE,NORAD_CAT_ID,ELEMENT_SET_NO,REV_AT_EPOCH,BSTAR,MEAN_MOTION_DOT,MEAN_MOTION_DDOT
STARLINK-33559,2024-220V,2026-07-12T01:51:17.792064,15.27580806,.0002674,43.0049,223.1613,292.9793,67.0776,0,U,62107,999,9221,.28244E-3,.7518E-4,0
STARLINK-33553,2024-220W,2026-07-12T03:14:22.050816,15.27561585,.0001542,43.0017,222.7299,255.7168,104.3513,0,U,62108,999,9222,.25451E-3,.6744E-4,0
STARLINK-33556,2024-220X,2026-07-12T02:53:59.748288,15.27587752,.000106,42.9981,222.6217,258.7660,101.3073,0,U,62109,999,9224,.44716E-3,.12066E-3,0
STARLINK-33551,2024-220Y,2026-07-12T03:19:54.187104,15.27583451,.0002135,43.0042,222.7599,280.1006,79.9604,0,U,62110,999,9222,.35553E-3,.9535E-4,0
GUANGCHUAN 01,2024-221A,2026-07-12T02:33:02.966976,15.14793153,.0007097,49.9442,40.8172,41.6222,318.5268,0,U,62111,999,8996,.13294E-3,.2198E-4,0
GUANGCHUAN 02,2024-221B,2026-07-12T02:37:44.846112,15.14775419,.0006449,49.9428,40.7457,89.3549,270.8141,0,U,62112,999,8995,.14952E-3,.2509E-4,0
STARLINK-32311,2024-222A,2026-07-11T23:58:44.436288,15.27592328,.0002078,42.9927,139.1751,37.0673,323.0322,0,U,62114,999,9209,.29377E-3,.7834E-4,0
STARLINK-32470,2024-222B,2026-07-11T06:53:23.616096,15.27595214,.00013774,43.0014,157.9993,37.3041,322.7906,0,U,62115,999,9180,.5356096E-3,.14512E-3,0
STARLINK-32502,2024-222C,2026-07-11T23:06:24.706080,15.27605620,.0001179,43.0000,154.4649,251.6123,108.4600,0,U,62116,999,9181,.45706E-3,.12346E-3,0
STARLINK-32521,2024-222D,2026-07-11T21:12:33.929856,15.27586422,.00010548,43.0007,151.1580,264.1105,95.9627,0,U,62117,999,9178,.34972867E-3,.9376E-4,0
STARLINK-32549,2024-222E,2026-07-11T22:14:35.651328,15.27585150,.0001155,42.9993,154.1961,258.0737,101.9985,0,U,62118,999,9181,.27548E-3,.7327E-4,0
STARLINK-32535,2024-222F,2026-07-11T06:02:29.066784,15.27591103,.00009287,42.9990,155.1297,311.8512,48.2260,0,U,62119,999,9169,.49053084E-3,.13265E-3,0
STARLINK-32548,2024-222G,2026-07-11T21:52:36.223104,15.27592494,.0001134,42.9980,154.9388,270.4392,89.6329,0,U,62120,999,9175,.35216E-3,.9445E-4,0
STARLINK-32525,2024-222H,2026-07-11T22:23:50.790336,15.27588015,.0000368,42.9963,154.2434,254.5409,105.5402,0,U,62121,999,9176,.56401E-3,.15294E-3,0
STARLINK-32628,2024-222J,2026-07-12T05:06:22.470048,15.27584630,.0001613,43.0022,152.9045,262.8363,97.2305,0,U,62122,999,9196,.33695E-3,.9023E-4,0
STARLINK-32626,2024-222K,2026-07-11T21:43:21.120384,15.27598679,.000059,42.9980,154.8906,203.0081,157.0744,0,U,62123,999,9174,.53193E-3,.14412E-3,0
STARLINK-32608,2024-222L,2026-07-12T00:14:39.388704,15.27593525,.0001263,42.9951,153.9664,76.7955,283.3037,0,U,62124,999,9175,.27601E-3,.7344E-4,0
STARLINK-32488,2024-222M,2026-07-11T21:58:09.078240,15.27600229,.0000572,42.9934,154.9657,308.8777,51.2024,0,U,62125,999,9164,.50308E-3,.13616E-3,0
STARLINK-32490,2024-222N,2026-07-11T22:18:17.140320,15.27599379,.0000319,42.9935,154.2143,135.0134,225.0743,0,U,62126,999,9175,.32727E-3,.876E-4,0
STARLINK-32557,2024-222P,2026-07-12T05:02:52.780704,15.27583878,.0001965,42.9973,142.3508,238.7665,121.2995,0,U,62127,999,9196,.44729E-3,.12068E-3,0
STARLINK-32568,2024-222Q,2026-07-11T09:04:32.293920,15.27586554,.00019161,43.0002,157.8143,266.3821,93.6811,0,U,62128,999,9140,.33446874E-3,.8955E-4,0
STARLINK-32462,2024-222R,2026-07-11T07:27:22.952448,15.27582099,.00022656,42.9998,154.7107,251.7204,108.3401,0,U,62129,999,9169,.31933957E-3,.8536E-4,0
STARLINK-32463,2024-222S,2026-07-12T04:46:01.987104,15.27586149,.0001517,43.0016,152.7949,43.3356,316.7615,0,U,62130,999,9179,.33196E-3,.8885E-4,0
STARLINK-32550,2024-222T,2026-07-11T21:47:03.528672,15.27606372,.0001423,42.9925,154.9129,41.2393,318.8566,0,U,62131,999,9179,.41665E-3,.1123E-3,0
STARLINK-32507,2024-222U,2026-07-11T06:27:27.646272,15.27590789,.00036524,42.9956,157.8555,241.5870,118.4614,0,U,62132,999,9150,.39207296E-3,.10547E-3,0
STARLINK-32245,2024-222V,2026-07-11T23:00:51.469056,15.27602238,.0000654,43.0005,154.4322,9.5307,350.5557,0,U,62133,999,9191,.57814E-3,.15692E-3,0
STARLINK-32546,2024-222W,2026-07-11T21:40:20.869248,15.27602492,.0000603,42.9956,151.4152,272.9000,87.1783,0,U,62134,999,9167,.57655E-3,.15648E-3,0
STARLINK-32545,2024-222X,2026-07-11T07:56:19.823136,15.27557325,.00005928,42.9953,158.3180,307.4635,52.6162,0,U,62135,999,9170,.52398644E-3,.14175E-3,0
STARLINK-32554,2024-222Y,2026-07-11T21:11:53.505888,15.27590577,.00008557,42.9995,154.7278,251.7957,108.2802,0,U,62136,999,9179,.50580784E-3,.13687E-3,0
STARLINK-32570,2024-222Z,2026-07-11T07:13:43.505472,15.27577969,.0002522,43.0022,158.0974,277.1696,82.8869,0,U,62137,999,9180,.5585505E-3,.15139E-3,0
